start=new Date('2022-11-18T00:00:00.000Z').valueOf();
sats=[{"SITE":"AFWTR","OBJECT_NAME":"STARLINK-3956","ARG_OF_PERICENTER":"51.0842","OBJECT_ID":"2022-051AD","PERIOD":"95.437","NORAD_CAT_ID":"52560","MEAN_MOTION":"15.08843438","BSTAR":"0.00008897800000","REV_AT_EPOCH":"2920","TLE_LINE2":"2 52560  53.2165 142.3204 0001933  51.0842 309.0322 15.08843438 29200","FILE":"3661914","EPOCH":"2022-11-17T15:04:41.262240","REF_FRAME":"TEME","OBJECT_TYPE":"PAYLOAD","GP_ID":"218098071","APOAPSIS":"541.072","EPHEMERIS_TYPE":"0","TLE_LINE1":"1 52560U 22051AD  22321.62825535  .00001128  00000-0  88978-4 0  9990","CLASSIFICATION_TYPE":"U","ELEMENT_SET_NO":"999","ECCENTRICITY":"0.00019330","MEAN_ANOMALY":"309.0322","RA_OF_ASC_NODE":"142.3204","MEAN_ELEMENT_THEORY":"SGP4","INCLINATION":"53.2165","MEAN_MOTION_DDOT":"0.0000000000000","LAUNCH_DATE":"2022-05-13","DECAY_DATE":null,"CENTER_NAME":"EARTH","TIME_SYSTEM":"UTC","COUNTRY_CODE":"US","SEMIMAJOR_AXIS":"6917.870","MEAN_MOTION_DOT":"0.00001128","RCS_SIZE":"LARGE","PERIAPSIS":"538.398"},{"OBJECT_TYPE":"PAYLOAD","GP_ID":"218096828","APOAPSIS":"541.268","REF_FRAME":"TEME","EPOCH":"2022-11-17T19:25:02.148960","FILE":"3661914","ECCENTRICITY":"0.00022220","MEAN_ANOMALY":"319.1722","EPHEMERIS_TYPE":"0","TLE_LINE1":"1 52561U 22051AE  22321.80905265  .00007318  00000-0  47736-3 0  9993","CLASSIFICATION_TYPE":"U","ELEMENT_SET_NO":"999","INCLINATION":"53.2145","MEAN_MOTION_DDOT":"0.0000000000000","MEAN_ELEMENT_THEORY":"SGP4","RA_OF_ASC_NODE":"156.5182","PERIAPSIS":"538.193","RCS_SIZE":"LARGE","COUNTRY_CODE":"US","SEMIMAJOR_AXIS":"6917.866","MEAN_MOTION_DOT":"0.00007318","TIME_SYSTEM":"UTC","DECAY_DATE":null,"LAUNCH_DATE":"2022-05-13","CENTER_NAME":"EARTH","PERIOD":"95.437","ARG_OF_PERICENTER":"40.9437","OBJECT_ID":"2022-051AE","SITE":"AFWTR","OBJECT_NAME":"STARLINK-3955","BSTAR":"0.00047736000000","MEAN_MOTION":"15.08844870","NORAD_CAT_ID":"52561","REV_AT_EPOCH":"2902","TLE_LINE2":"2 52561  53.2145 156.5182 0002222  40.9437 319.1722 15.08844870 29027"},{"EPOCH":"2022-11-17T13:18:42.402816","FILE":"3661693","APOAPSIS":"541.250","GP_ID":"218066887","OBJECT_TYPE":"PAYLOAD","REF_FRAME":"TEME","ECCENTRICITY":"0.00021540","MEAN_ANOMALY":"310.7456","TLE_LINE1":"1 52562U 22051AF  22321.55465744  .00001398  00000-0  10594-3 0  9993","CLASSIFICATION_TYPE":"U","ELEMENT_SET_NO":"999","EPHEMERIS_TYPE":"0","MEAN_ELEMENT_THEORY":"SGP4","RA_OF_ASC_NODE":"142.6402","MEAN_MOTION_DDOT":"0.0000000000000","INCLINATION":"53.2177","MEAN_MOTION_DOT":"0.00001398","SEMIMAJOR_AXIS":"6917.895","COUNTRY_CODE":"US","CENTER_NAME":"EARTH","DECAY_DATE":null,"LAUNCH_DATE":"2022-05-13","TIME_SYSTEM":"UTC","PERIAPSIS":"538.270","RCS_SIZE":"LARGE","OBJECT_ID":"2022-051AF","ARG_OF_PERICENTER":"49.3723","OBJECT_NAME":"STARLINK-3957","SITE":"AFWTR","PERIOD":"95.438","MEAN_MOTION":"15.08835303","NORAD_CAT_ID":"52562","BSTAR":"0.00010594000000","TLE_LINE2":"2 52562  53.2177 142.6402 0002154  49.3723 310.7456 15.08835303 29199","REV_AT_EPOCH":"2919"},{"PERIOD":"95.437","SITE":"AFWTR","OBJECT_NAME":"STARLINK-3942","ARG_OF_PERICENTER":"45.5596","OBJECT_ID":"2022-051AG","BSTAR":"0.00019225000000","NORAD_CAT_ID":"52563","MEAN_MOTION":"15.08844459","TLE_LINE2":"2 52563  53.2143 157.6876 0001825  45.5596 314.5545 15.08844459 28983","REV_AT_EPOCH":"2898","REF_FRAME":"TEME","OBJECT_TYPE":"PAYLOAD","GP_ID":"218066153","APOAPSIS":"540.994","FILE":"3661693","EPOCH":"2022-11-17T13:08:46.510656","EPHEMERIS_TYPE":"0","TLE_LINE1":"1 52563U 22051AG  22321.54776054  .00002773  00000-0  19225-3 0  9990","ELEMENT_SET_NO":"999","CLASSIFICATION_TYPE":"U","MEAN_ANOMALY":"314.5545","ECCENTRICITY":"0.00018250","INCLINATION":"53.2143","MEAN_MOTION_DDOT":"0.0000000000000","RA_OF_ASC_NODE":"157.6876","MEAN_ELEMENT_THEORY":"SGP4","RCS_SIZE":"LARGE","PERIAPSIS":"538.469","LAUNCH_DATE":"2022-05-13","DECAY_DATE":null,"CENTER_NAME":"EARTH","TIME_SYSTEM":"UTC","COUNTRY_CODE":"US","SEMIMAJOR_AXIS":"6917.867","MEAN_MOTION_DOT":"0.00002773"},{"NORAD_CAT_ID":"52564","MEAN_MOTION":"15.08847546","BSTAR":"0.00005646400000","SITE":"AFWTR","OBJECT_NAME":"STARLINK-3959","ARG_OF_PERICENTER":"56.3726","OBJECT_ID":"2022-051AH","PERIOD":"95.437","REV_AT_EPOCH":"2902","TLE_LINE2":"2 52564  53.2152 156.5303 0001979  56.3726 303.7455 15.08847546 29028","EPHEMERIS_TYPE":"0","ELEMENT_SET_NO":"999","TLE_LINE1":"1 52564U 22051AH  22321.80535225  .00000611  00000-0  56464-4 0  9999","CLASSIFICATION_TYPE":"U","MEAN_ANOMALY":"303.7455","ECCENTRICITY":"0.00019790","FILE":"3661914","EPOCH":"2022-11-17T19:19:42.434400","REF_FRAME":"TEME","OBJECT_TYPE":"PAYLOAD","APOAPSIS":"541.091","GP_ID":"218097571","TIME_SYSTEM":"UTC","DECAY_DATE":null,"LAUNCH_DATE":"2022-05-13","CENTER_NAME":"EARTH","SEMIMAJOR_AXIS":"6917.857","COUNTRY_CODE":"US","MEAN_MOTION_DOT":"0.00000611","RCS_SIZE":"LARGE","PERIAPSIS":"538.353","RA_OF_ASC_NODE":"156.5303","MEAN_ELEMENT_THEORY":"SGP4","INCLINATION":"53.2152","MEAN_MOTION_DDOT":"0.0000000000000"},{"REV_AT_EPOCH":"2918","TLE_LINE2":"2 52565  53.2168 142.9296 0002027  47.7633 312.3531 15.08844354 29184","OBJECT_NAME":"STARLINK-3911","SITE":"AFWTR","OBJECT_ID":"2022-051AJ","ARG_OF_PERICENTER":"47.7633","PERIOD":"95.437","NORAD_CAT_ID":"52565","MEAN_MOTION":"15.08844354","BSTAR":"0.00007319100000","RA_OF_ASC_NODE":"142.9296","MEAN_ELEMENT_THEORY":"SGP4","MEAN_MOTION_DDOT":"0.0000000000000","INCLINATION":"53.2168","DECAY_DATE":null,"TIME_SYSTEM":"UTC","LAUNCH_DATE":"2022-05-13","CENTER_NAME":"EARTH","MEAN_MOTION_DOT":"0.00000877","COUNTRY_CODE":"US","SEMIMAJOR_AXIS":"6917.867","RCS_SIZE":"LARGE","PERIAPSIS":"538.330","FILE":"3661693","EPOCH":"2022-11-17T11:48:36.877536","REF_FRAME":"TEME","APOAPSIS":"541.134","GP_ID":"218067155","OBJECT_TYPE":"PAYLOAD","TLE_LINE1":"1 52565U 22051AJ  22321.49209349  .00000877  00000-0  73191-4 0  9990","CLASSIFICATION_TYPE":"U","ELEMENT_SET_NO":"999","EPHEMERIS_TYPE":"0","ECCENTRICITY":"0.00020270","MEAN_ANOMALY":"312.3531"},{"REV_AT_EPOCH":"2906","TLE_LINE2":"2 52566  53.2181 157.5246 0002625  49.2024 310.9196 15.08673157 29061","NORAD_CAT_ID":"52566","MEAN_MOTION":"15.08673157","BSTAR":"0.00200680000000","OBJECT_NAME":"STARLINK-3938","SITE":"AFWTR","OBJECT_ID":"2022-051AK","ARG_OF_PERICENTER":"49.2024","PERIOD":"95.448","TIME_SYSTEM":"UTC","DECAY_DATE":null,"LAUNCH_DATE":"2022-05-13","CENTER_NAME":"EARTH","MEAN_MOTION_DOT":"0.00031649","COUNTRY_CODE":"US","SEMIMAJOR_AXIS":"6918.390","RCS_SIZE":"MEDIUM","PERIAPSIS":"538.439","RA_OF_ASC_NODE":"157.5246","MEAN_ELEMENT_THEORY":"SGP4","MEAN_MOTION_DDOT":"0.0000000000000","INCLINATION":"53.2181","TLE_LINE1":"1 52566U 22051AK  22321.58456405  .00031649  00000-0  20068-2 0  9992","CLASSIFICATION_TYPE":"U","ELEMENT_SET_NO":"999","EPHEMERIS_TYPE":"0","MEAN_ANOMALY":"310.9196","ECCENTRICITY":"0.00026250","FILE":"3661896","EPOCH":"2022-11-17T14:01:46.333920","REF_FRAME":"TEME","GP_ID":"218073150","APOAPSIS":"542.071","OBJECT_TYPE":"PAYLOAD"},{"TLE_LINE2":"2 52567  53.2163 142.9563 0002288  45.0805 315.0373 15.08838580 29187","REV_AT_EPOCH":"2918","BSTAR":"0.00007090500000","NORAD_CAT_ID":"52567","MEAN_MOTION":"15.08838580","PERIOD":"95.438","SITE":"AFWTR","OBJECT_NAME":"STARLINK-3929","ARG_OF_PERICENTER":"45.0805","OBJECT_ID":"2022-051AL","RCS_SIZE":"LARGE","PERIAPSIS":"538.167","DECAY_DATE":null,"LAUNCH_DATE":"2022-05-13","CENTER_NAME":"EARTH","TIME_SYSTEM":"UTC","SEMIMAJOR_AXIS":"6917.885","COUNTRY_CODE":"US","MEAN_MOTION_DOT":"0.00000840","INCLINATION":"53.2163","MEAN_MOTION_DDOT":"0.0000000000000","RA_OF_ASC_NODE":"142.9563","MEAN_ELEMENT_THEORY":"SGP4","EPHEMERIS_TYPE":"0","TLE_LINE1":"1 52567U 22051AL  22321.48473541  .00000840  00000-0  70905-4 0  9998","ELEMENT_SET_NO":"999","CLASSIFICATION_TYPE":"U","MEAN_ANOMALY":"315.0373","ECCENTRICITY":"0.00022880","REF_FRAME":"TEME","OBJECT_TYPE":"PAYLOAD","APOAPSIS":"541.333","GP_ID":"218065654","FILE":"3661693","EPOCH":"2022-11-17T11:38:01.139424"},{"OBJECT_TYPE":"PAYLOAD","GP_ID":"218098072","APOAPSIS":"541.402","REF_FRAME":"TEME","EPOCH":"2022-11-17T19:19:03.348768","FILE":"3661914","MEAN_ANOMALY":"312.6554","ECCENTRICITY":"0.00024000","EPHEMERIS_TYPE":"0","CLASSIFICATION_TYPE":"U","TLE_LINE1":"1 52568U 22051AM  22321.80489987  .00000258  00000-0  34344-4 0  9996","ELEMENT_SET_NO":"999","INCLINATION":"53.2167","MEAN_MOTION_DDOT":"0.0000000000000","MEAN_ELEMENT_THEORY":"SGP4","RA_OF_ASC_NODE":"141.5255","PERIAPSIS":"538.081","RCS_SIZE":"LARGE","COUNTRY_CODE":"US","SEMIMAJOR_AXIS":"6917.877","MEAN_MOTION_DOT":"0.00000258","LAUNCH_DATE":"2022-05-13","DECAY_DATE":null,"CENTER_NAME":"EARTH","TIME_SYSTEM":"UTC","PERIOD":"95.437","ARG_OF_PERICENTER":"47.4640","OBJECT_ID":"2022-051AM","SITE":"AFWTR","OBJECT_NAME":"STARLINK-3930","BSTAR":"0.00003434400000","MEAN_MOTION":"15.08841218","NORAD_CAT_ID":"52568","TLE_LINE2":"2 52568  53.2167 141.5255 0002400  47.4640 312.6554 15.08841218 29236","REV_AT_EPOCH":"2923"},{"REV_AT_EPOCH":"2918","TLE_LINE2":"2 52569  53.2167 142.9797 0002303  43.3398 316.7775 15.08824588 29185","MEAN_MOTION":"15.08824588","NORAD_CAT_ID":"52569","BSTAR":"-0.00010221000000","OBJECT_ID":"2022-051AN","ARG_OF_PERICENTER":"43.3398","OBJECT_NAME":"STARLINK-3927","SITE":"AFWTR","PERIOD":"95.439","MEAN_MOTION_DOT":"-0.00001914","COUNTRY_CODE":"US","SEMIMAJOR_AXIS":"6917.927","TIME_SYSTEM":"UTC","DECAY_DATE":null,"LAUNCH_DATE":"2022-05-13","CENTER_NAME":"EARTH","PERIAPSIS":"538.199","RCS_SIZE":"LARGE","MEAN_ELEMENT_THEORY":"SGP4","RA_OF_ASC_NODE":"142.9797","MEAN_MOTION_DDOT":"0.0000000000000","INCLINATION":"53.2167","MEAN_ANOMALY":"316.7775","ECCENTRICITY":"0.00023030","ELEMENT_SET_NO":"999","TLE_LINE1":"1 52569U 22051AN  22321.48107277 -.00001914  00000-0 -10221-3 0  9999","CLASSIFICATION_TYPE":"U","EPHEMERIS_TYPE":"0","EPOCH":"2022-11-17T11:32:44.687328","FILE":"3661693","APOAPSIS":"541.386","GP_ID":"218066656","OBJECT_TYPE":"PAYLOAD","REF_FRAME":"TEME"}];
